[{"OBJECT_NAME":"OBJECT D","OBJECT_ID":"2024-016D","EPOCH":"2026-03-09T22:53:28.816800","MEAN_MOTION":15.4556328,"ECCENTRICITY":0.00075961,"INCLINATION":97.4354,"RA_OF_ASC_NODE":155.9943,"ARG_OF_PERICENTER":82.5472,"MEAN_ANOMALY":277.6639,"EPHEMERIS_TYPE":0,"CLASSIFICATION_TYPE":"U","NORAD_CAT_ID":58823,"ELEMENT_SET_NO":999,"REV_AT_EPOCH":11841,"BSTAR":0.0008320931,"MEAN_MOTION_DOT":0.00040089,"MEAN_MOTION_DDOT":0},{"OBJECT_NAME":"STARLINK-34230","OBJECT_ID":"2025-111Q","EPOCH":"2026-03-09T22:00:01.999584","MEAN_MOTION":15.46183828,"ECCENTRICITY":0.00135686,"INCLINATION":42.9937,"RA_OF_ASC_NODE":69.6191,"ARG_OF_PERICENTER":116.6313,"MEAN_ANOMALY":52.4338,"EPHEMERIS_TYPE":0,"CLASSIFICATION_TYPE":"U","NORAD_CAT_ID":64137,"ELEMENT_SET_NO":999,"REV_AT_EPOCH":584,"BSTAR":0.0032637377,"MEAN_MOTION_DOT":0.00167921,"MEAN_MOTION_DDOT":0}]
